[{"OBJECT_NAME":"PRAETORIAN SDA_620","OBJECT_ID":"2025-203U","EPOCH":"2026-03-09T12:58:55.594272","MEAN_MOTION":13.837055,"ECCENTRICITY":0.00087981,"INCLINATION":81.2996,"RA_OF_ASC_NODE":103.0097,"ARG_OF_PERICENTER":100.0422,"MEAN_ANOMALY":260.1727,"EPHEMERIS_TYPE":0,"CLASSIFICATION_TYPE":"U","NORAD_CAT_ID":65583,"ELEMENT_SET_NO":999,"REV_AT_EPOCH":2491,"BSTAR":0.00023467553,"MEAN_MOTION_DOT":2.71e-6,"MEAN_MOTION_DDOT":0},{"OBJECT_NAME":"SL-8 R\/B","OBJECT_ID":"1976-108B","EPOCH":"2026-03-09T18:01:11.588448","MEAN_MOTION":13.77881481,"ECCENTRICITY":0.00248513,"INCLINATION":82.9411,"RA_OF_ASC_NODE":171.4489,"ARG_OF_PERICENTER":251.7284,"MEAN_ANOMALY":108.117,"EPHEMERIS_TYPE":0,"CLASSIFICATION_TYPE":"U","NORAD_CAT_ID":9510,"ELEMENT_SET_NO":999,"REV_AT_EPOCH":48036,"BSTAR":8.535968e-5,"MEAN_MOTION_DOT":1.01e-6,"MEAN_MOTION_DDOT":0}]
